[{"OBJECT_NAME":"STARLINK-3502","OBJECT_ID":"2022-016AJ","EPOCH":"2026-03-09T21:58:00.909984","MEAN_MOTION":15.08837161,"ECCENTRICITY":0.0001068,"INCLINATION":53.2183,"RA_OF_ASC_NODE":308.1202,"ARG_OF_PERICENTER":88.3011,"MEAN_ANOMALY":271.8104,"EPHEMERIS_TYPE":0,"CLASSIFICATION_TYPE":"U","NORAD_CAT_ID":51746,"ELEMENT_SET_NO":999,"REV_AT_EPOCH":22373,"BSTAR":4.4735373e-5,"MEAN_MOTION_DOT":4.24e-6,"MEAN_MOTION_DDOT":0},{"OBJECT_NAME":"CZ-2D DEB","OBJECT_ID":"2010-027D","EPOCH":"2026-03-07T13:36:06.977952","MEAN_MOTION":15.23568143,"ECCENTRICITY":0.0065729,"INCLINATION":97.6621,"RA_OF_ASC_NODE":290.9585,"ARG_OF_PERICENTER":344.0278,"MEAN_ANOMALY":15.8885,"EPHEMERIS_TYPE":0,"CLASSIFICATION_TYPE":"U","NORAD_CAT_ID":38299,"ELEMENT_SET_NO":999,"REV_AT_EPOCH":83553,"BSTAR":0.0024156,"MEAN_MOTION_DOT":0.00061723,"MEAN_MOTION_DDOT":0}]
